COSMOS 1953             
1 19210U 88050A   16089.09687682  .00000618  00000-0  41880-4 0  9994
2 19210  82.5145 104.7279 0012979 346.1897  13.8972 15.04653511510890
SL-8 R/B                
1 19257U 88053B   16088.91167987  .00000099  00000-0  41940-4 0  9999
2 19257  74.0492 315.0975 0021097 314.2306 145.2071 14.37296975454512
COSMOS 1975             
1 19573U 88093A   16088.95080500  .00000820  00000-0  57870-4 0  9994
2 19573  82.5202  56.0573 0015181  21.1513 339.0337 15.03574433471758
SL-14 R/B               
1 19574U 88093B   16088.81601991  .00000180  00000-0  18998-4 0  9990
2 19574  82.5344 201.4271 0022692 141.8587 333.3915 14.83137449483439
SL-16 R/B               
1 19650U 88102B   16088.81100812 -.00000194  00000-0 -74252-4 0  9994
2 19650  70.9989 231.5783 0013109 148.7264 211.4641 14.15735092412687
INTERCOSMOS 24          
1 20261U 89080A   16088.90649320  .00000245  00000-0  65431-4 0  9996
2 20261  82.5926 298.3749 1205248  43.5670 325.4473 12.55749438210485
SL-14 R/B               
1 20262U 89080C   16089.14104562  .00000091  00000-0  22779-4 0  9995
2 20262  82.5969 341.1090 1237406 191.0907 166.0428 12.48797978206165
DELTA 1 R/B             
1 20323U 89089B   16088.94143252  .00000108  00000-0  36990-4 0  9997
2 20323  97.0660 100.5266 0072992  42.6181 318.0647 14.48104024369758
DELTA 2 R/B(1)          
1 20453U 90008B   16089.03686407  .00004617  00000-0  27306-3 0  9998
2 20453  35.6255 322.4007 0295296  70.3375 292.8951 14.81280710382111
COSMOS 2058             
1 20465U 90010A   16089.15077790  .00000515  00000-0  42263-4 0  9999
2 20465  82.4893 315.6244 0015730 359.0006   1.1182 14.97111450418747
SL-14 R/B               
1 20466U 90010B   16089.00208534  .00000161  00000-0  17644-4 0  9998
2 20466  82.5017  69.1205 0020674   5.2053 354.9371 14.81204278411599
SL-14 R/B               
1 20511U 90018B   16089.22914483  .00000148  00000-0  16525-4 0  9990
2 20511  82.5262   8.4548 0018683 128.9101  22.4132 14.79866719406252
HST                     
1 20580U 90037B   16088.76493056  .00000958  00000-0  49025-4 0  9993
2 20580  28.4701  69.7683 0002973  66.7245 314.2258 15.08266547222958
SL-16 R/B               
1 20625U 90046B   16089.17963921  .00000254  00000-0  15655-3 0  9992
2 20625  71.0021   3.0996 0012422  59.0793 112.2757 14.14597513334903
COSMOS 2084             
1 20663U 90055A   16088.87956405  .00000440  00000-0  57266-4 0  9991
2 20663  62.7924 273.8565 0116497  45.3280 315.7234 14.91109032393386
SL-6 R/B(2)             
1 20666U 90055D   16089.51943192  .00000349  00000-0  47715-4 0  9991
2 20666  62.7846 191.8003 0129197  65.3372 296.1112 14.91487337394849
SL-8 R/B                
1 20775U 90078B   16089.01637602  .00003231  00000-0  16642-3 0  9995
2 20775  82.9315  52.3427 0598481 270.9266  82.3439 14.27924096285177
SL-8 R/B                
1 21088U 91006B   16089.24187852  .00000049  00000-0  33406-4 0  9999
2 21088  82.9457 350.9951 0023636 123.7037 346.9808 13.77032592264369
OKEAN-3                 
1 21397U 91039A   16089.37607619  .00000604  00000-0  56776-4 0  9992
2 21397  82.5243 200.8196 0016572 285.4007  74.5382 14.92142712343441
COSMOS 2151             
1 21422U 91042A   16089.13349198  .00000335  00000-0  30807-4 0  9992
2 21422  82.4995 309.8911 0013974 346.6461  13.4386 14.91580681342158
SL-14 R/B               
1 21423U 91042B   16089.15875934  .00000139  00000-0  15496-4 0  9996
2 21423  82.4968  17.2683 0016096 268.2196  91.7173 14.79620475336773
ERS-1                   
1 21574U 91050A   16089.49680858  .00000135  00000-0  59103-4 0  9997
2 21574  98.4067  39.1882 0032470 202.0000 157.9795 14.37471724293700
ARIANE 40 R/B           
1 21610U 91050F   16088.74746383  .00000027  00000-0  22662-4 0  9991
2 21610  98.6659 134.9843 0003326 172.2413 297.4867 14.40711207295692
INTERCOSMOS 25          
1 21819U 91086A   16088.84878898 -.00000352  00000-0 -69743-4 0  9993
2 21819  82.5591 330.7670 1526054 314.3223  34.2149 12.04152856 58651
SL-14 R/B               
1 21820U 91086B   16088.87050521  .00000255  00000-0  43530-4 0  9999
2 21820  82.5661  21.1219 1578160 125.0639 250.8874 11.93125405 53679
SL-8 R/B                
1 21876U 92008B   16088.96475661  .00000100  00000-0  88211-4 0  9995
2 21876  82.9232  88.1002 0034357 194.8315 222.4845 13.75580208209944
SL-8 R/B                
1 21938U 92020B   16088.79786027  .00000080  00000-0  67781-4 0  9996
2 21938  82.9315 331.1284 0029222 357.5861  69.2623 13.75234412202078
SL-16 R/B               
1 22220U 92076B   16088.91837373  .00000068  00000-0  58179-4 0  9994
2 22220  70.9990 276.4965 0014726 236.7019 225.5538 14.16395558207399
SL-16 R/B               
1 22285U 92093B   16089.43833776 -.00000218  00000-0 -87918-4 0  9997
2 22285  71.0214  65.2404 0001749  76.8545 283.2772 14.14994029199624
COSMOS 2228             
1 22286U 92094A   16088.94636140  .00000440  00000-0  45715-4 0  9994
2 22286  82.5194  73.8000 0021293 155.1430 205.0818 14.87392840235230
SL-16 R/B               
1 22566U 93016B   16088.96570927 -.00000261  00000-0 -11029-3 0  9995
2 22566  71.0066 281.4518 0007947  91.1359 269.0674 14.14925956188295
COSMOS 2242             
1 22626U 93024A   16089.10046276  .00000374  00000-0  38534-4 0  9997
2 22626  82.5193 101.3384 0019883 153.7213 206.5017 14.87399158239986
SL-16 R/B               
1 22803U 93059B   16089.13266148 -.00000112  00000-0 -31837-4 0  9998
2 22803  70.9883 107.2473 0018094 336.1390  23.8893 14.16739820165245
ARIANE 40 R/B           
1 22830U 93061H   16088.94480166 -.00000039  00000-0  28694-5 0  9992
2 22830  98.8854  88.0338 0011534 143.3022 274.4631 14.31402905174297
COSMOS 2278             
1 23087U 94023A   16088.79348051  .00000309  00000-0  18853-3 0  9998
2 23087  71.0544 209.8372 0009039 186.6037 173.4968 14.13714624131305
SL-16 R/B               
1 23088U 94023B   16089.50694790  .00000111  00000-0  82256-4 0  9993
2 23088  70.9994 135.3688 0001963  13.4177 346.6997 14.14642504132659
SL-16 R/B               
1 23343U 94074B   16089.57152689  .00000032  00000-0  12285-4 0  9993
2 23343  98.2009 114.8609 0008092  63.5057  49.6781 14.76645067151210
SL-16 R/B               
1 23405U 94077B   16089.18650290  .00000121  00000-0  87045-4 0  9998
2 23405  70.9826  70.9983 0004967 273.6785  86.3770 14.15181704102554
ERS-2                   
1 23560U 95021A   16089.07883312  .00004464  00000-0  22023-3 0  9999
2 23560  98.5099  17.7877 0004655  33.6653 326.4873 15.18534568107783
ARIANE 40+ R/B          
1 23561U 95021B   16089.08732396  .00000101  00000-0  48914-4 0  9998
2 23561  98.7653  74.7068 0007776 129.8474 271.7979 14.37722496 97295
SL-16 R/B               
1 23705U 95058B   16088.83399166  .00000037  00000-0  43642-4 0  9995
2 23705  71.0206 243.3905 0014641 258.0916 101.8565 14.15080364 53880
SL-16 R/B               
1 24298U 96051B   16088.90793906  .00000035  00000-0  45094-4 0  9996
2 24298  70.8331 280.7084 0014521 136.1085 224.1191 14.12392213  8685
ORBVIEW 2 (SEASTAR)     
1 24883U 97037A   16089.30960180  .00000091  00000-0  48897-4 0  9992
2 24883  98.5134 198.5384 0002143  14.3681 345.7564 14.33300354988171
SL-16 R/B               
1 25400U 98043G   16088.89076634  .00000023  00000-0  27541-4 0  9999
2 25400  98.4293  46.8915 0010298 153.1627 207.0087 14.25375400921418
SL-16 R/B               
1 25407U 98045B   16088.88391059 -.00000193  00000-0 -73961-4 0  9995
2 25407  71.0098 257.2031 0007678 182.3140 177.7949 14.15740458912883
ISS (ZARYA)             
1 25544U 98067A   16089.51304640  .00004095  00000-0  68682-4 0  9999
2 25544  51.6429  95.4050 0002197  11.5030 125.9589 15.54284488992582
SL-8 R/B                
1 25723U 99022C   16089.18437633  .00010115  00000-0  20247-3 0  9996
2 25723  48.4198   8.2715 0011872  57.5019  88.5357 15.47204630937438
CZ-4B R/B               
1 25732U 99025C   16089.09762102 -.00000003  00000-0  21086-4 0  9990
2 25732  98.9689  79.9899 0036335 278.7131 122.4805 14.17603629873571
OKEAN-O                 
1 25860U 99039A   16088.94383228  .00000235  00000-0  41396-4 0  9990
2 25860  98.1360  63.1777 0001841  99.4234 260.7183 14.76322962898033
SL-16 R/B               
1 25861U 99039B   16089.50053098  .00000112  00000-0  22666-4 0  9996
2 25861  98.0449  53.5831 0017064  75.5916  36.6523 14.78295000900071
TERRA                   
1 25994U 99068A   16089.22629608  .00000155  00000-0  44400-4 0  9997
2 25994  98.2155 164.6287 0001190  81.5964 278.5373 14.57109253865875
SL-14 R/B               
1 26874U 01032B   16089.22457059  .00027862  00000-0  16910-3 0  9996
2 26874  82.4645   9.2145 0009279 132.7280 227.4768 15.77289461823020
ENVISAT                 
1 27386U 02009A   16089.44572579  .00000008  00000-0  16687-4 0  9994
2 27386  98.2933 145.6826 0001318  88.2072 271.9266 14.37860612737169
IDEFIX & ARIANE 42P R/B 
1 27422U 02021B   16089.54416093 -.00000023  00000-0  69082-5 0  9994
2 27422  98.2353 108.4482 0013575 113.0651 247.1965 14.29236499723166
AQUA                    
1 27424U 02022A   16088.91640255  .00000251  00000-0  65787-4 0  9995
2 27424  98.2099  30.7071 0001665  72.4753 358.4823 14.57091770739386
CZ-4B R/B               
1 27432U 02024C   16089.52823605  .00000014  00000-0  30736-4 0  9999
2 27432  98.9279  56.1117 0049907 210.5719 256.2781 14.14009908715953
MIDORI II (ADEOS-II)    
1 27597U 02056A   16088.95385697  .00000096  00000-0  56260-4 0  9996
2 27597  98.3157  72.9413 0001256 132.8247 227.3040 14.27196166691919
H-2A R/B                
1 27601U 02056E   16088.89824293  .00000081  00000-0  44939-4 0  9999
2 27601  98.4236 164.7922 0072522 173.8825 311.4049 14.31699947694096
CZ-4B R/B               
1 28059U 03049C   16088.81944638  .00000025  00000-0  18085-4 0  9999
2 28059  98.6243 318.2660 0050493 163.3475 336.3211 14.52432552659028
CZ-2C R/B               
1 28222U 04012C   16088.91119243  .00001826  00000-0  11888-3 0  9992
2 28222  97.4656  49.8850 0047787 272.8987 149.2351 15.08291670653430
